IRIDIUM 173             
1 43925U 19002D   26095.55767184  .00000139  00000+0  42627-4 0  9997
2 43925  86.4017  23.9083 0002106  86.8420 273.3017 14.34218331378543
IRIDIUM 169             
1 43926U 19002E   26095.42735048  .00000505  00000+0  15870-3 0  9994
2 43926  86.4214  55.5991 0002148 104.8740 255.2697 14.38610094379768
IRIDIUM 172             
1 43927U 19002F   26095.55132920  .00000125  00000+0  37607-4 0  9990
2 43927  86.4012  23.9186 0002122  81.8631 278.2806 14.34218495378553
IRIDIUM 175             
1 43928U 19002G   26095.56370381  .00000483  00000+0  13670-3 0  9997
2 43928  86.4515 320.8986 0005317  97.3281 262.8524 14.43584214388508
IRIDIUM 171             
1 43929U 19002H   26095.53230008  .00000210  00000+0  67757-4 0  9990
2 43929  86.4024  24.2250 0002354  88.7715 271.3750 14.34217495378540
IRIDIUM 170             
1 43930U 19002J   26095.30380194  .00001554  00000+0  24255-3 0  9996
2 43930  86.6134  24.0037 0002363  81.4529 278.6956 14.72256193388538
IRIDIUM 167             
1 43931U 19002K   26095.31665469  .00000414  00000+0  14076-3 0  9993
2 43931  86.4014  24.0383 0002431  92.1073 268.0401 14.34216981378511
IRIDIUM 181             
1 56726U 23068S   26095.51858009  .00000299  00000+0  82785-4 0  9996
2 56726  86.4448  87.1709 0002455  81.9399 278.2081 14.43309119151953
IRIDIUM 177             
1 56727U 23068T   26095.24526236  .00001081  00000+0  13870-3 0  9999
2 56727  86.2018   3.4263 0002151  88.0731 272.0736 14.80237675155571
IRIDIUM 174             
1 56728U 23068U   26095.29144755  .00001629  00000+0  25445-3 0  9996
2 56728  86.6142  24.1488 0002186  81.2112 278.9353 14.72245084155292
IRIDIUM 178             
1 56729U 23068V   26095.36955165  .00000912  00000+0  11653-3 0  9990
2 56729  86.6526  55.7786 0002849  86.0252 274.1295 14.80234710155593
IRIDIUM 179             
1 56730U 23068W   26095.43177543  .00001993  00000+0  25875-3 0  9997
2 56730  86.6756  64.5200 0002841  95.3981 264.7565 14.80241975155601
