[{"OBJECT_NAME":"IRIDIUM 173","OBJECT_ID":"2019-002D","EPOCH":"2026-04-05T13:23:02.846976","MEAN_MOTION":14.34218331,"ECCENTRICITY":0.00021063,"INCLINATION":86.4017,"RA_OF_ASC_NODE":23.9083,"ARG_OF_PERICENTER":86.842,"MEAN_ANOMALY":273.3017,"EPHEMERIS_TYPE":0,"CLASSIFICATION_TYPE":"U","NORAD_CAT_ID":43925,"ELEMENT_SET_NO":999,"REV_AT_EPOCH":37854,"BSTAR":4.2627118e-5,"MEAN_MOTION_DOT":1.39e-6,"MEAN_MOTION_DDOT":0},{"OBJECT_NAME":"IRIDIUM 169","OBJECT_ID":"2019-002E","EPOCH":"2026-04-05T10:15:23.081472","MEAN_MOTION":14.38610094,"ECCENTRICITY":0.0002148,"INCLINATION":86.4214,"RA_OF_ASC_NODE":55.5991,"ARG_OF_PERICENTER":104.874,"MEAN_ANOMALY":255.2697,"EPHEMERIS_TYPE":0,"CLASSIFICATION_TYPE":"U","NORAD_CAT_ID":43926,"ELEMENT_SET_NO":999,"REV_AT_EPOCH":37976,"BSTAR":0.00015870103,"MEAN_MOTION_DOT":5.05e-6,"MEAN_MOTION_DDOT":0},{"OBJECT_NAME":"IRIDIUM 172","OBJECT_ID":"2019-002F","EPOCH":"2026-04-05T13:13:54.842880","MEAN_MOTION":14.34218495,"ECCENTRICITY":0.00021227,"INCLINATION":86.4012,"RA_OF_ASC_NODE":23.9186,"ARG_OF_PERICENTER":81.8631,"MEAN_ANOMALY":278.2806,"EPHEMERIS_TYPE":0,"CLASSIFICATION_TYPE":"U","NORAD_CAT_ID":43927,"ELEMENT_SET_NO":999,"REV_AT_EPOCH":37855,"BSTAR":3.7606813e-5,"MEAN_MOTION_DOT":1.25e-6,"MEAN_MOTION_DDOT":0},{"OBJECT_NAME":"IRIDIUM 175","OBJECT_ID":"2019-002G","EPOCH":"2026-04-05T13:31:44.009184","MEAN_MOTION":14.43584214,"ECCENTRICITY":0.00053179,"INCLINATION":86.4515,"RA_OF_ASC_NODE":320.8986,"ARG_OF_PERICENTER":97.3281,"MEAN_ANOMALY":262.8524,"EPHEMERIS_TYPE":0,"CLASSIFICATION_TYPE":"U","NORAD_CAT_ID":43928,"ELEMENT_SET_NO":999,"REV_AT_EPOCH":38850,"BSTAR":0.00013670016,"MEAN_MOTION_DOT":4.83e-6,"MEAN_MOTION_DDOT":0},{"OBJECT_NAME":"IRIDIUM 171","OBJECT_ID":"2019-002H","EPOCH":"2026-04-05T12:46:30.726912","MEAN_MOTION":14.34217495,"ECCENTRICITY":0.00023544,"INCLINATION":86.4024,"RA_OF_ASC_NODE":24.225,"ARG_OF_PERICENTER":88.7715,"MEAN_ANOMALY":271.375,"EPHEMERIS_TYPE":0,"CLASSIFICATION_TYPE":"U","NORAD_CAT_ID":43929,"ELEMENT_SET_NO":999,"REV_AT_EPOCH":37854,"BSTAR":6.7756909e-5,"MEAN_MOTION_DOT":2.1e-6,"MEAN_MOTION_DDOT":0},{"OBJECT_NAME":"IRIDIUM 170","OBJECT_ID":"2019-002J","EPOCH":"2026-04-05T07:17:28.487616","MEAN_MOTION":14.72256193,"ECCENTRICITY":0.0002363,"INCLINATION":86.6134,"RA_OF_ASC_NODE":24.0037,"ARG_OF_PERICENTER":81.4529,"MEAN_ANOMALY":278.6956,"EPHEMERIS_TYPE":0,"CLASSIFICATION_TYPE":"U","NORAD_CAT_ID":43930,"ELEMENT_SET_NO":999,"REV_AT_EPOCH":38853,"BSTAR":0.00024255,"MEAN_MOTION_DOT":1.554e-5,"MEAN_MOTION_DDOT":0},{"OBJECT_NAME":"IRIDIUM 167","OBJECT_ID":"2019-002K","EPOCH":"2026-04-05T07:35:58.965216","MEAN_MOTION":14.34216981,"ECCENTRICITY":0.0002431,"INCLINATION":86.4014,"RA_OF_ASC_NODE":24.0383,"ARG_OF_PERICENTER":92.1073,"MEAN_ANOMALY":268.0401,"EPHEMERIS_TYPE":0,"CLASSIFICATION_TYPE":"U","NORAD_CAT_ID":43931,"ELEMENT_SET_NO":999,"REV_AT_EPOCH":37851,"BSTAR":0.00014075789,"MEAN_MOTION_DOT":4.14e-6,"MEAN_MOTION_DDOT":0},{"OBJECT_NAME":"IRIDIUM 181","OBJECT_ID":"2023-068S","EPOCH":"2026-04-05T12:26:45.319776","MEAN_MOTION":14.43309119,"ECCENTRICITY":0.00024553,"INCLINATION":86.4448,"RA_OF_ASC_NODE":87.1709,"ARG_OF_PERICENTER":81.9399,"MEAN_ANOMALY":278.2081,"EPHEMERIS_TYPE":0,"CLASSIFICATION_TYPE":"U","NORAD_CAT_ID":56726,"ELEMENT_SET_NO":999,"REV_AT_EPOCH":15195,"BSTAR":8.2784923e-5,"MEAN_MOTION_DOT":2.99e-6,"MEAN_MOTION_DDOT":0},{"OBJECT_NAME":"IRIDIUM 177","OBJECT_ID":"2023-068T","EPOCH":"2026-04-05T05:53:10.667904","MEAN_MOTION":14.80237675,"ECCENTRICITY":0.0002151,"INCLINATION":86.2018,"RA_OF_ASC_NODE":3.4263,"ARG_OF_PERICENTER":88.0731,"MEAN_ANOMALY":272.0736,"EPHEMERIS_TYPE":0,"CLASSIFICATION_TYPE":"U","NORAD_CAT_ID":56727,"ELEMENT_SET_NO":999,"REV_AT_EPOCH":15557,"BSTAR":0.0001387,"MEAN_MOTION_DOT":1.081e-5,"MEAN_MOTION_DDOT":0},{"OBJECT_NAME":"IRIDIUM 174","OBJECT_ID":"2023-068U","EPOCH":"2026-04-05T06:59:41.068320","MEAN_MOTION":14.72245084,"ECCENTRICITY":0.0002186,"INCLINATION":86.6142,"RA_OF_ASC_NODE":24.1488,"ARG_OF_PERICENTER":81.2112,"MEAN_ANOMALY":278.9353,"EPHEMERIS_TYPE":0,"CLASSIFICATION_TYPE":"U","NORAD_CAT_ID":56728,"ELEMENT_SET_NO":999,"REV_AT_EPOCH":15529,"BSTAR":0.00025445,"MEAN_MOTION_DOT":1.629e-5,"MEAN_MOTION_DDOT":0},{"OBJECT_NAME":"IRIDIUM 178","OBJECT_ID":"2023-068V","EPOCH":"2026-04-05T08:52:09.262560","MEAN_MOTION":14.8023471,"ECCENTRICITY":0.00028496,"INCLINATION":86.6526,"RA_OF_ASC_NODE":55.7786,"ARG_OF_PERICENTER":86.0252,"MEAN_ANOMALY":274.1295,"EPHEMERIS_TYPE":0,"CLASSIFICATION_TYPE":"U","NORAD_CAT_ID":56729,"ELEMENT_SET_NO":999,"REV_AT_EPOCH":15559,"BSTAR":0.00011653109,"MEAN_MOTION_DOT":9.12e-6,"MEAN_MOTION_DDOT":0},{"OBJECT_NAME":"IRIDIUM 179","OBJECT_ID":"2023-068W","EPOCH":"2026-04-05T10:21:45.397152","MEAN_MOTION":14.80241975,"ECCENTRICITY":0.00028413,"INCLINATION":86.6756,"RA_OF_ASC_NODE":64.52,"ARG_OF_PERICENTER":95.3981,"MEAN_ANOMALY":264.7565,"EPHEMERIS_TYPE":0,"CLASSIFICATION_TYPE":"U","NORAD_CAT_ID":56730,"ELEMENT_SET_NO":999,"REV_AT_EPOCH":15560,"BSTAR":0.00025874813,"MEAN_MOTION_DOT":1.993e-5,"MEAN_MOTION_DDOT":0}]
